HELIOS 1B               
1 25977U 99064A   26108.19273708  .00000925  00000+0  10761-3 0  9995
2 25977  98.1657  11.5909 0000677  41.1386 318.9880 14.87842351691136
TERRA                   
1 25994U 99068A   26108.23357457  .00000259  00000+0  61803-4 0  9991
2 25994  97.9515 160.1413 0003509  71.9046   0.7612 14.61054639400859
SL-16 R/B               
1 26070U 00006B   26108.15325487 -.00000119  00000+0 -36290-4 0  9999
2 26070  71.0044  14.8574 0014739 126.3019 233.9468 14.15828423354148
TITAN 4B R/B            
1 26474U 00047B   26108.24784814  .00001757  00000+0  11459-3 0  9991
2 26474  67.9867 289.2448 0041633 349.8535  10.1769 15.09876556398881
ENVISAT                 
1 27386U 02009A   26108.33259222  .00000048  00000+0  29328-4 0  9991
2 27386  98.3790  61.0024 0001147  85.0407  71.6862 14.39049998264877
IDEFIX & ARIANE 42P R/B 
1 27422U 02021B   26108.27991927  .00000150  00000+0  73562-4 0  9997
2 27422  98.5914  46.4243 0012967  72.3398 287.9200 14.31051839249687
AQUA                    
1 27424U 02022A   26108.25182918  .00000544  00000+0  11811-3 0  9995
2 27424  98.4237  76.3577 0001865 104.1658   7.7048 14.62062285274515
CZ-4B R/B               
1 27432U 02024C   26108.10924266  .00000029  00000+0  38080-4 0  9996
2 27432  98.8759 161.3020 0049036 271.0202 108.5572 14.14554551234816
MIDORI II (ADEOS-II)    
1 27597U 02056A   26107.86593789  .00000178  00000+0  87877-4 0  9990
2 27597  98.7833  66.6314 0000395 145.7848 214.3359 14.29314095215890
H-2A R/B                
1 27601U 02056E   26108.12679843  .00000211  00000+0  88167-4 0  9993
2 27601  98.3267  67.0079 0071137  44.8298 325.9549 14.33788399219763
CZ-4B R/B               
1 28059U 03049C   26108.26842847  .00000254  00000+0  69683-4 0  9994
2 28059  98.6900 104.7353 0049268 110.4535 250.1961 14.55054577192356
CZ-2C R/B               
1 28222U 04012C   26108.13768838  .00050902  00000+0  43225-3 0  9998
2 28222  97.7145 177.3022 0013992 161.8386 198.3377 15.69369571210452
SL-16 R/B               
1 28353U 04021B   26108.12672952 -.00000049  00000+0 -46396-6 0  9997
2 28353  71.0001 149.7344 0006504 318.5079  41.5549 14.14605897128411
CZ-4B R/B               
1 28415U 04035C   26108.09985374  .00005707  00000+0  19799-3 0  9990
2 28415  97.3429 141.8745 0031558 185.4385 174.6518 15.29715526185933
CZ-2C R/B               
1 28480U 04046B   26108.17211700  .00000117  00000+0  58589-4 0  9999
2 28480  98.1972  20.6951 0140251  38.5325 322.5769 14.27007596114137
ARIANE 5 R/B            
1 28499U 04049H   26108.17706089  .00000626  00000+0  75680-4 0  9997
2 28499  98.2681 278.1280 0083205 222.4483 137.0277 14.85340300151652
CZ-2D R/B               
1 28738U 05024B   26108.29982102  .00032994  00000+0  35382-3 0  9999
2 28738  97.3542 125.0037 0003615 193.1145 167.0020 15.63749513145962
