[{"OBJECT_NAME":"HELIOS 1B","OBJECT_ID":"1999-064A","EPOCH":"2026-04-18T04:37:32.483712","MEAN_MOTION":14.87842351,"ECCENTRICITY":6.776e-5,"INCLINATION":98.1657,"RA_OF_ASC_NODE":11.5909,"ARG_OF_PERICENTER":41.1386,"MEAN_ANOMALY":318.988,"EPHEMERIS_TYPE":0,"CLASSIFICATION_TYPE":"U","NORAD_CAT_ID":25977,"ELEMENT_SET_NO":999,"REV_AT_EPOCH":69113,"BSTAR":0.00010760651,"MEAN_MOTION_DOT":9.25e-6,"MEAN_MOTION_DDOT":0},{"OBJECT_NAME":"TERRA","OBJECT_ID":"1999-068A","EPOCH":"2026-04-18T05:36:20.842848","MEAN_MOTION":14.61054639,"ECCENTRICITY":0.00035092,"INCLINATION":97.9515,"RA_OF_ASC_NODE":160.1413,"ARG_OF_PERICENTER":71.9046,"MEAN_ANOMALY":0.7612,"EPHEMERIS_TYPE":0,"CLASSIFICATION_TYPE":"U","NORAD_CAT_ID":25994,"ELEMENT_SET_NO":999,"REV_AT_EPOCH":40085,"BSTAR":6.1802772e-5,"MEAN_MOTION_DOT":2.59e-6,"MEAN_MOTION_DDOT":0},{"OBJECT_NAME":"SL-16 R/B","OBJECT_ID":"2000-006B","EPOCH":"2026-04-18T03:40:41.220768","MEAN_MOTION":14.15828423,"ECCENTRICITY":0.0014739,"INCLINATION":71.0044,"RA_OF_ASC_NODE":14.8574,"ARG_OF_PERICENTER":126.3019,"MEAN_ANOMALY":233.9468,"EPHEMERIS_TYPE":0,"CLASSIFICATION_TYPE":"U","NORAD_CAT_ID":26070,"ELEMENT_SET_NO":999,"REV_AT_EPOCH":35414,"BSTAR":-3.6289728e-5,"MEAN_MOTION_DOT":-1.19e-6,"MEAN_MOTION_DDOT":0},{"OBJECT_NAME":"TITAN 4B R/B","OBJECT_ID":"2000-047B","EPOCH":"2026-04-18T05:56:54.079296","MEAN_MOTION":15.09876556,"ECCENTRICITY":0.00416338,"INCLINATION":67.9867,"RA_OF_ASC_NODE":289.2448,"ARG_OF_PERICENTER":349.8535,"MEAN_ANOMALY":10.1769,"EPHEMERIS_TYPE":0,"CLASSIFICATION_TYPE":"U","NORAD_CAT_ID":26474,"ELEMENT_SET_NO":999,"REV_AT_EPOCH":39888,"BSTAR":0.00011458742,"MEAN_MOTION_DOT":1.757e-5,"MEAN_MOTION_DDOT":0},{"OBJECT_NAME":"ENVISAT","OBJECT_ID":"2002-009A","EPOCH":"2026-04-18T07:58:55.967808","MEAN_MOTION":14.39049998,"ECCENTRICITY":0.00011472,"INCLINATION":98.379,"RA_OF_ASC_NODE":61.0024,"ARG_OF_PERICENTER":85.0407,"MEAN_ANOMALY":71.6862,"EPHEMERIS_TYPE":0,"CLASSIFICATION_TYPE":"U","NORAD_CAT_ID":27386,"ELEMENT_SET_NO":999,"REV_AT_EPOCH":26487,"BSTAR":2.9327784e-5,"MEAN_MOTION_DOT":4.8e-7,"MEAN_MOTION_DDOT":0},{"OBJECT_NAME":"IDEFIX & ARIANE 42P R/B","OBJECT_ID":"2002-021B","EPOCH":"2026-04-18T06:43:05.024928","MEAN_MOTION":14.31051839,"ECCENTRICITY":0.00129671,"INCLINATION":98.5914,"RA_OF_ASC_NODE":46.4243,"ARG_OF_PERICENTER":72.3398,"MEAN_ANOMALY":287.92,"EPHEMERIS_TYPE":0,"CLASSIFICATION_TYPE":"U","NORAD_CAT_ID":27422,"ELEMENT_SET_NO":999,"REV_AT_EPOCH":24968,"BSTAR":7.3562027e-5,"MEAN_MOTION_DOT":1.5e-6,"MEAN_MOTION_DDOT":0},{"OBJECT_NAME":"AQUA","OBJECT_ID":"2002-022A","EPOCH":"2026-04-18T06:02:38.041152","MEAN_MOTION":14.62062285,"ECCENTRICITY":0.00018654,"INCLINATION":98.4237,"RA_OF_ASC_NODE":76.3577,"ARG_OF_PERICENTER":104.1658,"MEAN_ANOMALY":7.7048,"EPHEMERIS_TYPE":0,"CLASSIFICATION_TYPE":"U","NORAD_CAT_ID":27424,"ELEMENT_SET_NO":999,"REV_AT_EPOCH":27451,"BSTAR":0.00011810646,"MEAN_MOTION_DOT":5.44e-6,"MEAN_MOTION_DDOT":0},{"OBJECT_NAME":"CZ-4B R/B","OBJECT_ID":"2002-024C","EPOCH":"2026-04-18T02:37:18.565824","MEAN_MOTION":14.14554551,"ECCENTRICITY":0.00490365,"INCLINATION":98.8759,"RA_OF_ASC_NODE":161.302,"ARG_OF_PERICENTER":271.0202,"MEAN_ANOMALY":108.5572,"EPHEMERIS_TYPE":0,"CLASSIFICATION_TYPE":"U","NORAD_CAT_ID":27432,"ELEMENT_SET_NO":999,"REV_AT_EPOCH":23481,"BSTAR":3.8079773e-5,"MEAN_MOTION_DOT":2.9e-7,"MEAN_MOTION_DDOT":0},{"OBJECT_NAME":"MIDORI II (ADEOS-II)","OBJECT_ID":"2002-056A","EPOCH":"2026-04-17T20:46:57.033696","MEAN_MOTION":14.29314095,"ECCENTRICITY":3.958e-5,"INCLINATION":98.7833,"RA_OF_ASC_NODE":66.6314,"ARG_OF_PERICENTER":145.7848,"MEAN_ANOMALY":214.3359,"EPHEMERIS_TYPE":0,"CLASSIFICATION_TYPE":"U","NORAD_CAT_ID":27597,"ELEMENT_SET_NO":999,"REV_AT_EPOCH":21589,"BSTAR":8.7877346e-5,"MEAN_MOTION_DOT":1.78e-6,"MEAN_MOTION_DDOT":0},{"OBJECT_NAME":"H-2A R/B","OBJECT_ID":"2002-056E","EPOCH":"2026-04-18T03:02:35.384352","MEAN_MOTION":14.33788399,"ECCENTRICITY":0.00711371,"INCLINATION":98.3267,"RA_OF_ASC_NODE":67.0079,"ARG_OF_PERICENTER":44.8298,"MEAN_ANOMALY":325.9549,"EPHEMERIS_TYPE":0,"CLASSIFICATION_TYPE":"U","NORAD_CAT_ID":27601,"ELEMENT_SET_NO":999,"REV_AT_EPOCH":21976,"BSTAR":8.8167315e-5,"MEAN_MOTION_DOT":2.11e-6,"MEAN_MOTION_DDOT":0},{"OBJECT_NAME":"CZ-4B R/B","OBJECT_ID":"2003-049C","EPOCH":"2026-04-18T06:26:32.219808","MEAN_MOTION":14.55054577,"ECCENTRICITY":0.00492689,"INCLINATION":98.69,"RA_OF_ASC_NODE":104.7353,"ARG_OF_PERICENTER":110.4535,"MEAN_ANOMALY":250.1961,"EPHEMERIS_TYPE":0,"CLASSIFICATION_TYPE":"U","NORAD_CAT_ID":28059,"ELEMENT_SET_NO":999,"REV_AT_EPOCH":19235,"BSTAR":6.968258e-5,"MEAN_MOTION_DOT":2.54e-6,"MEAN_MOTION_DDOT":0},{"OBJECT_NAME":"CZ-2C R/B","OBJECT_ID":"2004-012C","EPOCH":"2026-04-18T03:18:16.276032","MEAN_MOTION":15.69369571,"ECCENTRICITY":0.00139921,"INCLINATION":97.7145,"RA_OF_ASC_NODE":177.3022,"ARG_OF_PERICENTER":161.8386,"MEAN_ANOMALY":198.3377,"EPHEMERIS_TYPE":0,"CLASSIFICATION_TYPE":"U","NORAD_CAT_ID":28222,"ELEMENT_SET_NO":999,"REV_AT_EPOCH":21045,"BSTAR":0.00043224546,"MEAN_MOTION_DOT":0.00050902,"MEAN_MOTION_DDOT":0},{"OBJECT_NAME":"SL-16 R/B","OBJECT_ID":"2004-021B","EPOCH":"2026-04-18T03:02:29.430528","MEAN_MOTION":14.14605897,"ECCENTRICITY":0.00065047,"INCLINATION":71.0001,"RA_OF_ASC_NODE":149.7344,"ARG_OF_PERICENTER":318.5079,"MEAN_ANOMALY":41.5549,"EPHEMERIS_TYPE":0,"CLASSIFICATION_TYPE":"U","NORAD_CAT_ID":28353,"ELEMENT_SET_NO":999,"REV_AT_EPOCH":12841,"BSTAR":-4.63958e-7,"MEAN_MOTION_DOT":-4.9e-7,"MEAN_MOTION_DDOT":0},{"OBJECT_NAME":"CZ-4B R/B","OBJECT_ID":"2004-035C","EPOCH":"2026-04-18T02:23:47.363136","MEAN_MOTION":15.29715526,"ECCENTRICITY":0.00315582,"INCLINATION":97.3429,"RA_OF_ASC_NODE":141.8745,"ARG_OF_PERICENTER":185.4385,"MEAN_ANOMALY":174.6518,"EPHEMERIS_TYPE":0,"CLASSIFICATION_TYPE":"U","NORAD_CAT_ID":28415,"ELEMENT_SET_NO":999,"REV_AT_EPOCH":18593,"BSTAR":0.00019798762,"MEAN_MOTION_DOT":5.707e-5,"MEAN_MOTION_DDOT":0},{"OBJECT_NAME":"CZ-2C R/B","OBJECT_ID":"2004-046B","EPOCH":"2026-04-18T04:07:50.908800","MEAN_MOTION":14.27007596,"ECCENTRICITY":0.01402515,"INCLINATION":98.1972,"RA_OF_ASC_NODE":20.6951,"ARG_OF_PERICENTER":38.5325,"MEAN_ANOMALY":322.5769,"EPHEMERIS_TYPE":0,"CLASSIFICATION_TYPE":"U","NORAD_CAT_ID":28480,"ELEMENT_SET_NO":999,"REV_AT_EPOCH":11413,"BSTAR":5.8588947e-5,"MEAN_MOTION_DOT":1.17e-6,"MEAN_MOTION_DDOT":0},{"OBJECT_NAME":"ARIANE 5 R/B","OBJECT_ID":"2004-049H","EPOCH":"2026-04-18T04:14:58.060896","MEAN_MOTION":14.853403,"ECCENTRICITY":0.00832057,"INCLINATION":98.2681,"RA_OF_ASC_NODE":278.128,"ARG_OF_PERICENTER":222.4483,"MEAN_ANOMALY":137.0277,"EPHEMERIS_TYPE":0,"CLASSIFICATION_TYPE":"U","NORAD_CAT_ID":28499,"ELEMENT_SET_NO":999,"REV_AT_EPOCH":15165,"BSTAR":7.5680389e-5,"MEAN_MOTION_DOT":6.26e-6,"MEAN_MOTION_DDOT":0},{"OBJECT_NAME":"CZ-2D R/B","OBJECT_ID":"2005-024B","EPOCH":"2026-04-18T07:11:44.536128","MEAN_MOTION":15.63749513,"ECCENTRICITY":0.00036157,"INCLINATION":97.3542,"RA_OF_ASC_NODE":125.0037,"ARG_OF_PERICENTER":193.1145,"MEAN_ANOMALY":167.002,"EPHEMERIS_TYPE":0,"CLASSIFICATION_TYPE":"U","NORAD_CAT_ID":28738,"ELEMENT_SET_NO":999,"REV_AT_EPOCH":14596,"BSTAR":0.00035381747,"MEAN_MOTION_DOT":0.00032994,"MEAN_MOTION_DDOT":0}]
